BEIDOU-3 M14            
1 43623U 18072B   26129.20348764 -.00000020  00000+0  00000+0 0  9991
2 43623  56.5941  63.9398 0006694 345.6638  14.3071  1.86231536 51926
BEIDOU-3 M16            
1 43647U 18078A   26129.35942515 -.00000037  00000+0  00000+0 0  9991
2 43647  54.1265 301.3466 0007924  39.4697 320.5792  1.86232384 51430
BEIDOU-3 M15            
1 43648U 18078B   26128.95177431 -.00000037  00000+0  00000+0 0  9994
2 43648  54.1224 301.3614 0005073  51.4620 308.5741  1.86232654 51445
BEIDOU-3 G1             
1 43683U 18085A   26129.93008934 -.00000097  00000+0  00000+0 0  9997
2 43683   2.9772  98.3830 0007659 337.7646 286.4026  1.00273290 27671
BEIDOU-3 M17            
1 43706U 18093A   26129.24918965  .00000044  00000+0  00000+0 0  9991
2 43706  54.1671 183.6178 0009134 291.2507 160.2904  1.86228609 50811
BEIDOU-3 M18            
1 43707U 18093B   26127.36477020  .00000032  00000+0  00000+0 0  9992
2 43707  54.1680 183.6737 0007248 323.3441  36.6857  1.86226701 50781
BEIDOU-3 IGSO-1         
1 44204U 19023A   26129.65679304 -.00000217  00000+0  00000+0 0  9998
2 44204  58.6428  38.0490 0024008 234.3721 307.0515  1.00251812  6826
BEIDOU-2 G8             
1 44231U 19027A   26129.93377936 -.00000237  00000+0  00000+0 0  9991
2 44231   1.5609  74.4084 0011083 282.0884 351.9162  1.00274746 25699
BEIDOU-3 IGSO-2         
1 44337U 19035A   26129.51664542 -.00000073  00000+0  00000+0 0  9991
2 44337  55.2384 159.2020 0039520 215.2739 158.7000  1.00279427 25287
BEIDOU-3 M24            
1 44542U 19061A   26129.04479801  .00000042  00000+0  00000+0 0  9993
2 44542  54.3946 184.0482 0008103   3.6991 356.3835  1.86229217 45065
BEIDOU-3 M23            
1 44543U 19061B   26129.25158262  .00000044  00000+0  00000+0 0  9994
2 44543  54.3931 184.0098 0005129 344.8604  65.7036  1.86227742 45075
BEIDOU-3 IGSO-3         
1 44709U 19073A   26120.85038409 -.00000212  00000+0  00000+0 0  9996
2 44709  54.8842 281.4069 0042404 188.8195 170.9972  1.00251230 23982
BEIDOU-3 M22            
1 44793U 19078A   26129.42102106 -.00000037  00000+0  00000+0 0  9997
2 44793  53.9723 301.1911 0007198  47.1122 312.9393  1.86227546 43925
BEIDOU-3 M21            
1 44794U 19078B   26129.56104247 -.00000037  00000+0  00000+0 0  9991
2 44794  53.9455 301.1483 0004996  44.9088 315.1228  1.86228037 43930
BEIDOU-3 M19            
1 44864U 19090A   26128.45489995 -.00000021  00000+0  00000+0 0  9999
2 44864  56.5258  64.1039 0019341 296.1478 239.2902  1.86231845 43492
BEIDOU-3 M20            
1 44865U 19090B   26129.38368757 -.00000020  00000+0  00000+0 0  9994
2 44865  56.5282  64.1078 0017025 308.8996 218.8417  1.86231698 43496
BEIDOU-3 G2             
1 45344U 20017A   26129.77986622 -.00000130  00000+0  00000+0 0  9990
2 45344   2.7872  46.7304 0002955   6.7743 174.8735  1.00271085 22878
BEIDOU-3 G3             
1 45807U 20040A   26129.92029596 -.00000344  00000+0  00000+0 0  9992
2 45807   2.3533  67.3348 0003546 332.6814 269.4966  1.00277634 21687
BEIDOU-3 G4             
1 56564U 23066A   26129.93377936 -.00000274  00000+0  00000+0 0  9992
2 56564   0.5381 322.4537 0003546 159.2858 222.1851  1.00267738 11015
BEIDOU-3 M28            
1 58654U 23207A   26129.63823934 -.00000022  00000+0  00000+0 0  9993
2 58654  55.7203  63.6034 0004308 328.8442  31.1205  1.86229761 16124
BEIDOU-3 M26            
1 58655U 23207B   26128.89877583 -.00000023  00000+0  00000+0 0  9991
2 58655  55.7218  63.6147 0004584 308.3454  51.6033  1.86229772 16092
BEIDOU-3 M25            
1 61186U 24168B   26128.72217630 -.00000038  00000+0  00000+0 0  9990
2 61186  54.5099 303.6138 0003219 315.5987  43.1750  1.86230280 11049
BEIDOU-3 M27            
1 61187U 24168C   26129.05472400 -.00000038  00000+0  00000+0 0  9996
2 61187  54.5049 303.5853 0002347  41.6147 315.1318  1.86230358  8521
